$$SOE
2459580.500000000, A.D. 2022-Jan-01 00:00:00.0000, -4.440052592861310E+08, -1.221708543643366E+08, -1.451656276837840E+07,
2459587.500000000, A.D. 2022-Jan-08 00:00:00.0000, -4.390162205484091E+08, -1.304025040037075E+08, -1.877818115113313E+07,
2459594.500000000, A.D. 2022-Jan-15 00:00:00.0000, -4.338059225367774E+08, -1.385683977209559E+08, -2.303032626555835E+07,
2459601.500000000, A.D. 2022-Jan-22 00:00:00.0000, -4.283735501482713E+08, -1.466633218673413E+08, -2.727067223360781E+07,
2459608.500000000, A.D. 2022-Jan-29 00:00:00.0000, -4.227184154313676E+08, -1.546819437195575E+08, -3.149682733263595E+07,
2459615.500000000, A.D. 2022-Feb-05 00:00:00.0000, -4.168399682714388E+08, -1.626188127273256E+08, -3.570633331310130E+07,
2459622.500000000, A.D. 2022-Feb-12 00:00:00.0000, -4.107378052281477E+08, -1.704683632090426E+08, -3.989666514523747E+07,
2459629.500000000, A.D. 2022-Feb-19 00:00:00.0000, -4.044116778431624E+08, -1.782249161593300E+08, -4.406523089625316E+07,
2459636.500000000, A.D. 2022-Feb-26 00:00:00.0000, -3.978615017187640E+08, -1.858826809259744E+08, -4.820937169433350E+07,
2459643.500000000, A.D. 2022-Mar-05 00:00:00.0000, -3.910873661946357E+08, -1.934357574095984E+08, -5.232636186277521E+07,
2459650.500000000, A.D. 2022-Mar-12 00:00:00.0000, -3.840895443847452E+08, -2.008781388889914E+08, -5.641340926911049E+07,
2459657.500000000, A.D. 2022-Mar-19 00:00:00.0000, -3.768685034822991E+08, -2.082037154815178E+08, -6.046765591329525E+07,
2459664.500000000, A.D. 2022-Mar-26 00:00:00.0000, -3.694249152838476E+08, -2.154062782831129E+08, -6.448617877778661E+07,
2459671.500000000, A.D. 2022-Apr-02 00:00:00.0000, -3.617596668337863E+08, -2.224795242841260E+08, -6.846599097121190E+07,
2459678.500000000, A.D. 2022-Apr-09 00:00:00.0000, -3.538738708829913E+08, -2.294170620975626E+08, -7.240404321212345E+07,
2459685.500000000, A.D. 2022-Apr-16 00:00:00.0000, -3.457688757664713E+08, -2.362124178860021E+08, -7.629722565486534E+07,
2459692.500000000, A.D. 2022-Apr-23 00:00:00.0000, -3.374462759250816E+08, -2.428590404409015E+08, -8.014236987520343E+07,
2459699.500000000, A.D. 2022-Apr-30 00:00:00.0000, -3.289079248905212E+08, -2.493503076958933E+08, -8.393625104980566E+07,
2459706.500000000, A.D. 2022-May-07 00:00:00.0000, -3.201559476141514E+08, -2.556795366831831E+08, -8.767559079369470E+07,
2459713.500000000, A.D. 2022-May-14 00:00:00.0000, -3.111927506874564E+08, -2.618399939276151E+08, -9.135706055592866E+07,
2459720.500000000, A.D. 2022-May-21 00:00:00.0000, -3.020210324146115E+08, -2.678249055485738E+08, -9.497728534474017E+07,
2459727.500000000, A.D. 2022-May-28 00:00:00.0000, -2.926437931380013E+08, -2.736274680541676E+08, -9.853284783481650E+07,
2459734.500000000, A.D. 2022-Jun-04 00:00:00.0000, -2.830643454556076E+08, -2.792408601626951E+08, -1.020202929250385E+08,
2459741.500000000, A.D. 2022-Jun-11 00:00:00.0000, -2.732863240964850E+08, -2.846582556663022E+08, -1.054361327759524E+08,
2459748.500000000, A.D. 2022-Jun-18 00:00:00.0000, -2.633136953212520E+08, -2.898728373335350E+08, -1.087768523435227E+08,
2459755.500000000, A.D. 2022-Jun-25 00:00:00.0000, -2.531507657179323E+08, -2.948778118856354E+08, -1.120389154255495E+08,
2459762.500000000, A.D. 2022-Jul-02 00:00:00.0000, -2.428021901530578E+08, -2.996664261052001E+08, -1.152187712456757E+08,
2459769.500000000, A.D. 2022-Jul-09 00:00:00.0000, -2.322729783766728E+08, -3.042319838838046E+08, -1.183128615994955E+08,
2459776.500000000, A.D. 2022-Jul-16 00:00:00.0000, -2.215685002211960E+08, -3.085678630990359E+08, -1.213176284677467E+08,
2459783.500000000, A.D. 2022-Jul-23 00:00:00.0000, -2.106944914736847E+08, -3.126675322051640E+08, -1.242295218817966E+08,
2459790.500000000, A.D. 2022-Jul-30 00:00:00.0000, -1.996570602162594E+08, -3.165245698425685E+08, -1.270450083113979E+08,
2459797.500000000, A.D. 2022-Aug-06 00:00:00.0000, -1.884626899157468E+08, -3.201326867581494E+08, -1.297605798354821E+08,
2459804.500000000, A.D. 2022-Aug-13 00:00:00.0000, -1.771182399678623E+08, -3.234857472089049E+08, -1.323727637729107E+08,
2459811.500000000, A.D. 2022-Aug-20 00:00:00.0000, -1.656309451497778E+08, -3.265777902638078E+08, -1.348781326405368E+08,
2459818.500000000, A.D. 2022-Aug-27 00:00:00.0000, -1.540084138014161E+08, -3.294030516281439E+08, -1.372733144670572E+08,
2459825.500000000, A.D. 2022-Sep-03 00:00:00.0000, -1.422586243820894E+08, -3.319559859849685E+08, -1.395550034502379E+08,
2459832.500000000, A.D. 2022-Sep-10 00:00:00.0000, -1.303899202154002E+08, -3.342312897011291E+08, -1.417199709130990E+08,
2459839.500000000, A.D. 2022-Sep-17 00:00:00.0000, -1.184110023073720E+08, -3.362239237585796E+08, -1.437650765049500E+08,
2459846.500000000, A.D. 2022-Sep-24 00:00:00.0000, -1.063309201055720E+08, -3.379291368086035E+08, -1.456872795934945E+08,
2459853.500000000, A.D. 2022-Oct-01 00:00:00.0000, -9.415905990294123E+07, -3.393424882064276E+08, -1.474836508016626E+08,
2459860.500000000, A.D. 2022-Oct-08 00:00:00.0000, -8.190513044007704E+07, -3.404598703293035E+08, -1.491513836073521E+08,
2459867.500000000, A.D. 2022-Oct-15 00:00:00.0000, -6.957914661805214E+07, -3.412775287954008E+08, -1.506878057401874E+08,
2459874.500000000, A.D. 2022-Oct-22 00:00:00.0000, -5.719141350393774E+07, -3.417920820769983E+08, -1.520903902249483E+08,
2459881.500000000, A.D. 2022-Oct-29 00:00:00.0000, -4.475250815342911E+07, -3.420005429081416E+08, -1.533567664217589E+08,
2459888.500000000, A.D. 2022-Nov-05 00:00:00.0000, -3.227325719834975E+07, -3.419003385530554E+08, -1.544847309395461E+08,
2459895.500000000, A.D. 2022-Nov-12 00:00:00.0000, -1.976471223723041E+07, -3.414893284767961E+08, -1.554722580452750E+08,
2459902.500000000, A.D. 2022-Nov-19 00:00:00.0000, -7.238123847475316E+06, -3.407658201843616E+08, -1.563175094859134E+08,
2459909.500000000, A.D. 2022-Nov-26 00:00:00.0000, 5.295085918351556E+06, -3.397285834445363E+08, -1.570188436845605E+08,
2459916.500000000, A.D. 2022-Dec-03 00:00:00.0000, 1.782335256872865E+07, -3.383768627386995E+08, -1.575748242327533E+08,
2459923.500000000, A.D. 2022-Dec-10 00:00:00.0000, 3.033499961571357E+07, -3.367103877574860E+08, -1.579842275901196E+08,
2459930.500000000, A.D. 2022-Dec-17 00:00:00.0000, 4.281827025712729E+07, -3.347293818287753E+08, -1.582460499102213E+08,
2459937.500000000, A.D. 2022-Dec-24 00:00:00.0000, 5.526136019773071E+07, -3.324345682224281E+08, -1.583595129321340E+08,
2459944.500000000, A.D. 2022-Dec-31 00:00:00.0000, 6.765245173868439E+07, -3.298271741277691E+08, -1.583240688971763E+08,
2459951.500000000, A.D. 2023-Jan-07 00:00:00.0000, 7.997974901288676E+07, -3.269089312701570E+08, -1.581394043697301E+08,
2459958.500000000, A.D. 2023-Jan-14 00:00:00.0000, 9.223151214065556E+07, -3.236820726237571E+08, -1.578054426971481E+08,
2459965.500000000, A.D. 2023-Jan-21 00:00:00.0000, 1.043960893946463E+08, -3.201493283720120E+08, -1.573223452743111E+08,
2459972.500000000, A.D. 2023-Jan-28 00:00:00.0000, 1.164619507736525E+08, -3.163139213178446E+08, -1.566905119428629E+08,
2459979.500000000, A.D. 2023-Feb-04 00:00:00.0000, 1.284177225093158E+08, -3.121795587522421E+08, -1.559105802501864E+08,
2459986.500000000, A.D. 2023-Feb-11 00:00:00.0000, 1.402522204471635E+08, -3.077504210389887E+08, -1.549834234237760E+08,
2459993.500000000, A.D. 2023-Feb-18 00:00:00.0000, 1.519544819841135E+08, -3.030311478290955E+08, -1.539101471396903E+08,
2460000.500000000, A.D. 2023-Feb-25 00:00:00.0000, 1.635137965833467E+08, -2.980268221824866E+08, -1.526920851525855E+08,
2460007.500000000, A.D. 2023-Mar-04 00:00:00.0000, 1.749197347427447E+08, -2.927429527176006E+08, -1.513307938377628E+08,
2460014.500000000, A.D. 2023-Mar-11 00:00:00.0000, 1.861621752384221E+08, -2.871854539488163E+08, -1.498280457016174E+08,
2460021.500000000, A.D. 2023-Mar-18 00:00:00.0000, 1.972313305055613E+08, -2.813606250392514E+08, -1.481858219328491E+08,
2460028.500000000, A.D. 2023-Mar-25 00:00:00.0000, 2.081177702005278E+08, -2.752751272093796E+08, -1.464063040909492E+08,
2460035.500000000, A.D. 2023-Apr-01 00:00:00.0000, 2.188124432364729E+08, -2.689359596149700E+08, -1.444918650224037E+08,
2460042.500000000, A.D. 2023-Apr-08 00:00:00.0000, 2.293066975712292E+08, -2.623504326870116E+08, -1.424450589388917E+08,
2460049.500000000, A.D. 2023-Apr-15 00:00:00.0000, 2.395922953305956E+08, -2.555261402621692E+08, -1.402686106278052E+08,
2460056.500000000, A.D. 2023-Apr-22 00:00:00.0000, 2.496614250238014E+08, -2.484709337768877E+08, -1.379654043064187E+08,
2460063.500000000, A.D. 2023-Apr-29 00:00:00.0000, 2.595067135635286E+08, -2.411928964915208E+08, -1.355384722854173E+08,
2460070.500000000, A.D. 2023-May-06 00:00:00.0000, 2.691212363353002E+08, -2.337003161800876E+08, -1.329909832357424E+08,
2460077.500000000, A.D. 2023-May-13 00:00:00.0000, 2.784985243691275E+08, -2.260016573890752E+08, -1.303262301420580E+08,
2460084.500000000, A.D. 2023-May-20 00:00:00.0000, 2.876325689004030E+08, -2.181055339558265E+08, -1.275476181015957E+08,
2460091.500000000, A.D. 2023-May-27 00:00:00.0000, 2.965178235879129E+08, -2.100206820030248E+08, -1.246586520820539E+08,
2460098.500000000, A.D. 2023-Jun-03 00:00:00.0000, 3.051492045401341E+08, -2.017559335564759E+08, -1.216629247306429E+08,
2460105.500000000, A.D. 2023-Jun-10 00:00:00.0000, 3.135220882834330E+08, -1.933201909578417E+08, -1.185641043208025E+08,
2460112.500000000, A.D. 2023-Jun-17 00:00:00.0000, 3.216323078841462E+08, -1.847224022732806E+08, -1.153659229260083E+08,
2460119.500000000, A.D. 2023-Jun-24 00:00:00.0000, 3.294761476787408E+08, -1.759715377644041E+08, -1.120721649145658E+08,
2460126.500000000, A.D. 2023-Jul-01 00:00:00.0000, 3.370503370105339E+08, -1.670765666975318E+08, -1.086866557838583E+08,
2460133.500000000, A.D. 2023-Jul-08 00:00:00.0000, 3.443520414524077E+08, -1.580464337586510E+08, -1.052132511701091E+08,
2460140.500000000, A.D. 2023-Jul-15 00:00:00.0000, 3.513788503930856E+08, -1.488900379774117E+08, -1.016558261957488E+08,
$$EOE